[{"OBJECT_NAME":"STARLINK-4428","OBJECT_ID":"2022-105AA","EPOCH":"2026-03-09T15:55:26.931360","MEAN_MOTION":15.01253245,"ECCENTRICITY":0.00025835,"INCLINATION":97.6017,"RA_OF_ASC_NODE":310.2043,"ARG_OF_PERICENTER":56.708,"MEAN_ANOMALY":303.4392,"EPHEMERIS_TYPE":0,"CLASSIFICATION_TYPE":"U","NORAD_CAT_ID":53672,"ELEMENT_SET_NO":999,"REV_AT_EPOCH":19323,"BSTAR":-0.0001200629,"MEAN_MOTION_DOT":-1.6e-5,"MEAN_MOTION_DDOT":0},{"OBJECT_NAME":"CZ-4B DEB","OBJECT_ID":"1999-057P","EPOCH":"2026-03-09T10:31:29.691840","MEAN_MOTION":14.91091708,"ECCENTRICITY":0.00558084,"INCLINATION":98.442,"RA_OF_ASC_NODE":235.9963,"ARG_OF_PERICENTER":58.1221,"MEAN_ANOMALY":355.8675,"EPHEMERIS_TYPE":0,"CLASSIFICATION_TYPE":"U","NORAD_CAT_ID":26127,"ELEMENT_SET_NO":999,"REV_AT_EPOCH":36984,"BSTAR":0.001630359,"MEAN_MOTION_DOT":0.00016608,"MEAN_MOTION_DDOT":0}]
